STARLINK-36760          
1 68956U 26099F   26132.83335648 -.00050136  00000+0 -25157-3 0  9993
2 68956  53.1595 331.7069 0000900  76.8466 271.2889 15.80905294  3035
