{
  "norad_id": 68956,
  "name": "STARLINK-36760",
  "history": [
    {
      "epoch": "2026-05-12T20:00:01.999008Z",
      "apogee_km": 328.4828530704499,
      "perigee_km": 327.27577013436166,
      "latitude_deg": -9.61720983492765,
      "longitude_deg": 153.84437129004283,
      "height_km": 330.528757735378,
      "semi_major_axis_km": 6706.016311602406,
      "eccentricity": 9e-05,
      "inclination_deg": 53.1595,
      "raan_deg": 331.7069,
      "arg_perigee_deg": 76.8466,
      "mean_anomaly_deg": 271.2889,
      "mean_motion_rev_day": 15.80905294
    }
  ]
}